POLYITAN-1              
1 40042U 14033AJ  26193.56228347  .00012606  00000+0  38349-3 0  9993
2 40042  98.0940 222.2395 0008123  71.5850 288.6273 15.34156417657480
TIGRISAT                
1 40043U 14033AK  26194.39082255  .00000829  00000+0  10106-3 0  9997
2 40043  97.7860 343.8076 0048774 350.2970   9.7298 14.85246548649514
AEROCUBE 6A             
1 40045U 14033AM  26194.40447623  .00003127  00000+0  26419-3 0  9993
2 40045  97.7236   1.0799 0036450 287.1709  72.5524 14.98332074650543
AEROCUBE 6B             
1 40046U 14033AN  26194.44800480  .00002679  00000+0  21843-3 0  9999
2 40046  97.7196   0.9676 0038008 276.2664  83.4230 14.99788967650699
CANX-4                  
1 40055U 14034C   26194.09089748  .00000466  00000+0  67045-4 0  9994
2 40055  98.3087  70.3511 0011470 290.4106  69.5873 14.81309217648364
CANX-5                  
1 40056U 14034D   26194.08902816  .00000469  00000+0  67442-4 0  9998
2 40056  98.3089  70.3942 0011468 290.6384  69.3597 14.81326588639172
UKUBE-1                 
1 40074U 14037F   26194.47683774  .00004476  00000+0  25133-3 0  9995
2 40074  98.4240 200.5192 0003327  92.0376 268.1233 15.13935151652535
BRITE-PL2 (HEWELIUSZ)   
1 40119U 14049B   26194.01388840  .00000806  00000+0  79660-4 0  9992
2 40119  97.9119 306.2169 0014541  29.3912 330.8123 14.94683999645301
AEROCUBE 5C             
1 40965U 15058B   26194.32047284  .00001862  00000+0  17187-3 0  9998
2 40965  64.7652 181.2824 0132210  53.1402 308.1745 14.91569281369558
AEROCUBE 7              
1 40966U 15058C   26194.30856090  .00003017  00000+0  24558-3 0  9994
2 40966  64.7607 162.9861 0121901  51.4720 309.7246 14.95903007369864
FOX-1A (AO-85)          
1 40967U 15058D   26194.37655269  .00001690  00000+0  15942-3 0  9999
2 40967  64.7723 197.5870 0132208  46.4986 314.7024 14.91081725117476
SINOD-D 1               
1 40968U 15058E   26194.35026029  .00002930  00000+0  23839-3 0  9996
2 40968  64.7731 176.9685 0120896  42.8594 318.1865 14.96077409120571
SNAP-3 ALICE            
1 40970U 15058G   26194.20762299  .00095871  00000+0  87975-3 0  9996
2 40970  64.7493  13.5320 0024376 349.7617  10.3032 15.66833547120952
LMRST-SAT               
1 40971U 15058H   26194.40567201  .00001627  00000+0  15506-3 0  9992
2 40971  64.7731 193.8846 0133768  48.4907 312.7591 14.90697105117469
SNAP-3 EDDIE            
1 40972U 15058J   26194.43201169  .00105051  00000+0  90785-3 0  9992
2 40972  64.7400   3.2732 0025378 352.1710   7.9040 15.68236979123132
PROPCUBE 3              
1 40973U 15058K   26194.37659281  .00002428  00000+0  20685-3 0  9994
2 40973  64.7667 170.6999 0125602  49.6933 311.5075 14.94407083118712
BISONSAT                
1 40974U 15058L   26194.14694245  .00008837  00000+0  41901-3 0  9993
2 40974  64.7589  89.6667 0081857  36.7421 323.9275 15.16897055119558
SNAP-3 JIMI             
1 40975U 15058M   26194.28180831  .00004425  00000+0  30462-3 0  9999
2 40975  64.7643 137.1920 0107717  45.0565 315.9226 15.02592193118148
PROPCUBE 1 (FLORA)      
1 40976U 15058N   26194.45183775  .00001262  00000+0  12866-3 0  9993
2 40976  64.7718 213.8276 0132351  50.7565 310.5203 14.89322709120173
SINOD-D 3               
1 40977U 15058P   26194.41246176  .00002341  00000+0  20339-3 0  9998
2 40977  64.7700 193.9150 0120915  47.8300 313.3005 14.94165190118679
RAVAN                   
1 41849U 16067B   26194.15344167  .00038477  00000+0  52677-3 0  9997
2 41849  97.9849  86.7743 0001985 235.0809 125.0258 15.57315898531733
CELTEE 1                
1 41850U 16067C   26194.08189664  .00003097  00000+0  14772-3 0  9994
2 41850  98.0642  62.4153 0002271 112.8115 247.3358 15.19929338529818
OPTICUBE 04             
1 41851U 16067D   26193.53031186  .00001344  00000+0  87500-4 0  9992
2 41851  98.0676  47.1347 0016361  36.5014 323.7325 15.09765361528990
AEROCUBE 8D             
1 41852U 16067E   26193.88387865  .00004883  00000+0  20043-3 0  9998
2 41852  98.0651  66.0118 0004706  62.5706 297.6008 15.24750647529982
AEROCUBE 8C             
1 41853U 16067F   26193.57653986  .00004607  00000+0  18790-3 0  9995
2 41853  98.0525  62.8765 0004548 351.7275   8.3885 15.25001010529932
CORVUS BC2              
1 42846U 17042X   26194.49967661  .00001415  00000+0  99805-4 0  9993
2 42846  97.4090 354.8325 0013601  28.6821 331.5152 15.06451798491025
CORVUS BC1              
1 42847U 17042Y   26194.42496946  .00001070  00000+0  76175-4 0  9992
2 42847  97.4115 355.5916 0011784   6.7633 353.3752 15.06614889491048
MAKERSAT 0              
1 43016U 17073D   26193.90601466  .00014826  00000+0  39200-3 0  9992
2 43016  97.4593  76.6362 0105335 180.4050 179.7125 15.32952290470403
SIRION PATHFINDER-2     
1 43759U 18099B   26193.94648822  .00002956  00000+0  16276-3 0  9995
2 43759  97.4243 242.3930 0008238 199.6407 160.4509 15.14767949416525
CORVUS BC4              
1 43767U 18099K   26193.98816819  .00002719  00000+0  15895-3 0  9994
2 43767  97.4056 236.2140 0006498 270.3916  89.6570 15.12692886416300
